STARLINK-2508
1 28456C 21040AE  21325.14130718  .00005001  00000-0  33506-3 0  3251
2 28456  53.0554  27.5946 0001335  71.2300   4.2613 15.06398294    13
